    PK10U55H  2028 06  2.2803  2.894090  0.564696  225.3021  232.8327    8.0368  20250430  11.0  4.0  P/2010 UH55 (Spacewatch)                                 MPC 79021
    PK11C020  2032 02  4.4569  5.401135  0.271030  160.2790   11.9597   10.8946  20250430   9.0  4.0  P/2011 C2 (Gibbs)                                        MPC 84021
    PK11FE3R  2029 02  1.4741  3.767589  0.452493  349.6583  190.8497   15.9629  20250430  14.0  2.0  P/2011 FR143 (Lemmon)                                    MPC 79866
    PK11J15B  2032 01 11.8996  5.057395  0.314719  110.7128  153.5862   19.1255  20250430   9.0  4.0  P/2011 JB15 (Spacewatch-Boattini)                        MPC 82317
    PK11N010  2027 12 30.9046  2.833588  0.545476  330.4900   77.6288   35.7863  20250430  11.5  4.0  P/2011 N1 (ASH)                                          MPC 87913
    PK11P010  2030 12 21.5586  5.025723  0.326424  349.1800    4.2610    5.6522  20250430   9.0  4.0  P/2011 P1 (McNaught)                                     MPEC 2022-ED3
    PK11S010  2014 08 24.4599  6.867295  0.201067  192.9328  218.8972    2.6885  20250430   8.0  4.0  P/2011 S1 (Gibbs)                                        MPEC 2022-HC2
    PK11V010  2026 04 23.5501  1.742092  0.548369  269.6125   46.4911    7.3830  20250430  15.5  4.0  P/2011 V1 (Boattini)                                     MPEC 2023-UR6
    PK11W010  2022 02  9.4065  3.325673  0.288494  283.0215  161.8091    3.7161  20250430  11.5  4.0  P/2011 W1 (PANSTARRS)                                    MPC 82718
    PK11Y020  2027 10  2.1853  1.798911  0.711203  132.0676  309.3203    6.3917  20250430  15.0  4.0  P/2011 Y2 (Boattini)                                     MPC 79342
    PK12B010  2030 03  8.8673  3.858934  0.410082  161.9328   36.2104    7.6057  20250430   9.0  4.0  P/2012 B1 (PANSTARRS)                                    MPEC 2022-K19
    PK12C030  2011 10  6.7469  3.605925  0.630111  344.9542  135.3677    9.0920            13.0  4.0  P/2012 C3 (PANSTARRS)                                    MPC 78590
    PK12F020  2029 03 19.4508  2.916794  0.540462   33.1605  226.9568   14.6984  20250430  12.0  4.0  P/2012 F2 (PANSTARRS)                                    MPC 84931
    PK12G010  2029 03 28.1087  2.791050  0.329496  266.0192  283.2387   12.1680  20250430  15.0  4.0  P/2012 G1 (PANSTARRS)                                    MPEC 2022-ED3
    PK12K030  2026 07 15.9246  2.100735  0.421680  172.1433  125.8062   13.1816  20250430  15.0  4.0  P/2012 K3 (Gibbs)                                        MPC 80898
    CK12K51A  2011 11  6.2782  4.866085  0.990857   93.9850  344.8458   70.7375  20250430   8.7  4.0  C/2012 KA51                                              MPEC 2025-H88
    PK12N00J  2037 02  1.7145  1.299923  0.846482  338.3886  315.6917   84.3297  20250430  14.5  4.0  P/2012 NJ (La Sagra)                                     MPC 88326
    PK12O010  2025 11  1.1151  1.440086  0.593568  238.2803   91.9402    7.4280  20250430  17.5  4.0  P/2012 O1 (McNaught)                                     MPC 81470
    PK12O020  2026 04  1.5249  1.701610  0.531226  183.4134  120.6620   24.4556  20250430  17.0  4.0  P/2012 O2 (McNaught)                                     MPC 80899
    PK12T020  2027 01 20.9885  4.790679  0.162124  311.1736   73.8770   12.5700  20250430  10.0  4.0  P/2012 T2 (PANSTARRS)                                    MPC 82320
    PK12T030  2027 08  9.9502  2.367229  0.615598  195.4703  114.3262    9.5538  20250430  15.0  4.0  P/2012 T3 (PANSTARRS)                                    MPC 80900
    PK12U020  2031 12  5.6473  3.559345  0.500505  228.4374  185.2766   10.7584  20250430  12.5  4.0  P/2012 U2 (PANSTARRS)                                    MPC 82720
    PK13A76L  2029 06 28.0310  2.044171  0.685539   27.1119  146.0890  144.9122  20250430  16.0  4.0  P/2013 AL76 (Catalina)                                   MPC 82721
    PK13G010  2032 01 19.3800  3.384775  0.509933   51.3760  221.3167    5.4571  20250430  11.0  4.0  P/2013 G1 (Kowalski)                                     MPC 91612
    PK13G040  2022 06 19.1010  2.618187  0.409361  214.5213  339.5876    5.9201  20250430  15.0  4.0  P/2013 G4 (PANSTARRS)                                    MPC 84025
    PK13J020  2029 03 13.7323  2.143514  0.655888   37.8617  289.2917   15.5004  20250430  13.0  4.0  P/2013 J2 (McNaught)                                     MPC 91613
    PK13N030  2034 04  9.6423  3.028956  0.590978  323.8877   17.5897    2.1674  20250430  13.0  4.0  P/2013 N3 (PANSTARRS)                                    MPC 86229
    PK13N050  2031 04  2.3664  1.825406  0.731524  176.9602  187.1608   23.4146  20250430  17.0  4.0  P/2013 N5 (PANSTARRS)                                    MPC 85834
    PK13P010  2013 02 16.1705  3.415559  0.602492  138.1353  160.6995   18.6881  20250430  12.0  4.0  P/2013 P1 (PANSTARRS)                                    MPC 85834
    PK13R030  2024 03 20.8614  2.194000  0.276886   11.5021  341.8412    0.8650  20250430  14.0  4.0  P/2013 R3 (Catalina-PANSTARRS)                           MPEC 2022-V95
    PK13R03a  2024 03 20.4856  2.194019  0.276819   11.5801  341.7957    0.8641  20250430   9.0  4.0  P/2013 R3-A (Catalina-PANSTARRS)                         unp
    PK13R03b  2024 03 20.8845  2.194052  0.276862   11.5155  341.8521    0.8654  20250430   9.0  4.0  P/2013 R3-B (Catalina-PANSTARRS)                         MPEC 2015-M77
    PK13T010  2027 10 12.9546  2.203882  0.623599  346.1744   10.0868   24.2704  20250430  16.5  4.0  P/2013 T1 (PANSTARRS)                                    MPC 85835
    PK13T020  2026 06 11.3886  1.746079  0.500208  345.5662    0.8075    9.4470  20250430  16.0  4.0  P/2013 T2 (Schwartz)                                     MPC 86643
    PK13W010  2027 03 15.9324  1.415535  0.593815    1.2430  117.8351    4.6999  20250430  17.5  4.0  P/2013 W1 (PANSTARRS)                                    MPC 91613
    PK13Y46G  2023 01 16.7527  1.739651  0.467602  243.8332   47.5155    7.6140  20250430  10.0  4.0  P/2013 YG46 (Spacewatch)                                 MPC101095
    PK14A020  2028 03 14.1640  2.092244  0.646674  356.1970  106.6564   24.5636  20250430  15.0  4.0  P/2014 A2 (Hill)                                         MPC 89728
    PK14C010  2028 07  2.7192  2.643304  0.342890  188.2861   39.8839    3.2146  20250430  15.5  4.0  P/2014 C1 (TOTAS)                                        MPEC 2024-F34
    CK14F030  2021 05 27.6961  5.730623  0.601861    5.1335  325.9778    6.5210  20250430   6.0  4.0  C/2014 F3 (Sheppard-Trujillo)                            MPEC 2022-WD2
    PK14L020  2030 05 26.3077  2.232921  0.646238  182.6941  149.3388    5.1908  20250430  12.0  4.0  P/2014 L2 (NEOWISE)                                      MPC 98560
    PK14L030  2014 06 21.6628  1.873390  0.771087  178.6597  115.5302    6.2542  20250430  16.0  4.0  P/2014 L3 (Hill)                                         MPC 90769
    PK14M040  2029 03 18.8981  2.368523  0.596022  148.1245  263.1999    3.3471  20250430  15.0  4.0  P/2014 M4 (PANSTARRS)                                    MPC 91614
    PK14O030  2035 02 26.3957  4.685511  0.382446  204.6718   87.6244    7.7890  20250430  10.5  4.0  P/2014 O3 (PANSTARRS)                                    MPC 98560
    CK14Od2G  2022 01  3.4128  9.983271  0.185477  255.2825  145.8260    9.0324  20250430   6.0  4.0  C/2014 OG392 (PANSTARRS)                                 MPC182878
    PK14U040  2027 09 13.8463  1.883332  0.463765  347.8443   11.9270    6.4225  20250430  18.0  4.0  P/2014 U4 (PANSTARRS)                                    MPC 91616
    CK14UR1N  2031 01 16.4211 10.960222  1.004173  326.0794  189.9572   95.4439  20250430   2.5  3.2  C/2014 UN271 (Bernardinelli-Bernstein)                   MPEC 2025-HB5
    PK14V010  2027 11 27.5598  2.557389  0.533436  177.6508  166.1831   22.5002  20250430  14.0  4.0  P/2014 V1 (PANSTARRS)                                    MPC 95211
    PK14W040  2032 11 23.8262  4.243335  0.355093   67.7351   33.3082   15.2837  20250430  11.0  4.0  P/2014 W4 (PANSTARRS)                                    MPC105542
    PK14X010  2030 06 14.9666  1.791975  0.710893   33.9474   61.5464   26.0494  20250430  15.0  4.0  P/2014 X1 (Elenin)                                       MPC 94281
    PK15A030  2015 02 23.0260  1.166319  0.850791  249.6624  277.4852  172.5513  20250430  20.0  4.0  P/2015 A3 (PANSTARRS)                                    MPC 92275
    PK15B010  2015 09  6.3877  5.998543  0.366860  188.6729  352.8515   18.0869  20250430   8.5  4.0  P/2015 B1 (PANSTARRS)                                    MPC 99270
    PK15B040  2015 02  8.7856  3.720344  0.562558  227.0977  266.1360    1.7676  20250430  11.0  4.0  P/2015 B4 (Lemmon-PANSTARRS)                             MPC109141
    PK15C010  2032 02  4.0368  2.831806  0.567544  178.0275  348.7641   13.9098  20250430  12.5  4.0  P/2015 C1 (TOTAS-Gibbs)                                  MPC101096
    PK15D050  2014 04 10.1212  4.544917  0.491862   39.6220   74.0879   20.5518  20250430   9.0  4.0  P/2015 D5 (Kowalski)                                     MPC109141
    PK15D060  2034 07  1.9698  4.538145  0.362582  125.8822   45.4101   20.2961  20250430  10.5  4.0  P/2015 D6 (Lemmon-PANSTARRS)                             MPEC 2024-R10
    PK15K050  2032 11  3.1529  3.017017  0.551574  106.1047  134.3089   39.9261  20250430  13.5  4.0  P/2015 K5 (PANSTARRS)                                    MPC 95213
    PK15M020  2015 08 31.8501  5.965837  0.177703  225.7641   86.6989    3.9678  20250430   8.5  4.0  P/2015 M2 (PANSTARRS)                                    MPC107684
    PK15P040  2030 12 11.3896  2.509545  0.585085  280.7414  104.6769    8.7221  20250430  14.0  4.0  P/2015 P4 (PANSTARRS)                                    MPC 99819
